STARLINK-2750           
1 48691U 21044BF  23259.10192442  .00022244  00000+0  15056-2 0  9995
2 48691  53.0547 181.9621 0001373  92.2279 267.8867 15.06447178128689
STARLINK-2752           
1 48692U 21044BG  23259.08719403  .00008231  00000+0  57053-3 0  9999
2 48692  53.0542 182.1514 0001320  93.4089 266.7051 15.06417715128680
STARLINK-2618           
1 48693U 21044BH  23259.09499183  .00024756  00000+0  16729-2 0  9995
2 48693  53.0543 186.9919 0001262  91.5146 268.5988 15.06447888128617
STARLINK-2748           
1 48694U 21044BJ  23259.06320876  .00011860  00000+0  81350-3 0  9990
2 48694  53.0550 192.1252 0001510  88.0035 272.1127 15.06413144128534
STARLINK-2616           
1 48695U 21044BK  23258.22377601  .00015879  00000+0  10828-2 0  9991
2 48695  53.0542 195.9489 0001391  86.9179 273.1969 15.06390427127578
STARLINK-2753           
1 48696U 21044BL  23259.07659661  .00021629  00000+0  14652-2 0  9994
2 48696  53.0545 197.1212 0001336  95.9614 264.1528 15.06431494128474
STARLINK-2715           
1 48697U 21044BM  23259.10607132  .00023450  00000+0  15873-2 0  9995
2 48697  53.0549 196.9495 0001428  86.7899 273.3254 15.06415388128476
STARLINK-3003           
1 48879U 21059A   23258.88542258  .00002622  00000+0  20873-3 0  9999
2 48879  97.6639  21.9350 0001864  89.7550 270.3888 15.01247006122895
STARLINK-3004           
1 48880U 21059B   23258.88325726  .00004132  00000+0  32616-3 0  9996
2 48880  97.6635  21.9116 0001862  80.4761 279.6674 15.01257199122892
STARLINK-3005           
1 48881U 21059C   23258.94324934  .00006295  00000+0  49439-3 0  9997
2 48881  97.6630  21.9166 0001613  85.4984 274.6424 15.01249580122915
STARLINK-3096           
1 49131U 21082B   23258.75983100  .00001460  00000+0  13009-3 0  9990
2 49131  70.0015  18.6218 0003255 273.2668  86.8119 14.98343901111264
STARLINK-3090           
1 49132U 21082C   23258.53098144  .00000124  00000+0  18198-4 0  9993
2 49132  70.0005  59.2298 0003163 268.4858  91.5939 14.98331993110246
STARLINK-3077           
1 49133U 21082D   23258.52246856  .00000099  00000+0  16125-4 0  9997
2 49133  70.0004  59.2287 0003097 267.6854  92.3951 14.98329653110240
STARLINK-3078           
1 49134U 21082E   23258.58505499  .00000206  00000+0  25069-4 0  9992
2 49134  70.0003  59.0736 0003095 271.8451  88.2353 14.98333102111453
STARLINK-3073           
1 49135U 21082F   23258.75566141  .00001888  00000+0  16593-3 0  9991
2 49135  70.0017  18.6230 0003222 268.8825  91.1965 14.98336950111278
STARLINK-3084           
1 49136U 21082G   23258.81847976  .00001016  00000+0  92880-4 0  9994
2 49136  70.0014  38.4764 0003238 268.8625  91.2163 14.98340849110792
STARLINK-3055           
1 49137U 21082H   23258.81430909  .00001096  00000+0  99620-4 0  9996
2 49137  70.0013  38.4891 0003239 270.7323  89.3465 14.98339456110785
STARLINK-3058           
1 49138U 21082J   23258.58088244 -.00000098  00000+0 -43899-6 0  9994
2 49138  70.0001  59.0880 0003322 273.4117  86.6662 14.98335435110258
STARLINK-3057           
1 49139U 21082K   23258.74731689  .00000709  00000+0  67163-4 0  9996
2 49139  70.0014  18.6505 0003270 274.4755  85.6031 14.98340329111268
STARLINK-3118           
1 49140U 21082L   23259.07278064  .00000911  00000+0  84127-4 0  9992
2 49140  70.0024  17.8364 0003033 277.8804  82.2011 14.98321470111317
STARLINK-3093           
1 49141U 21082M   23258.57671103  .00000502  00000+0  49827-4 0  9992
2 49141  70.0015  59.1033 0002750 263.6877  96.3969 14.98329165111450
STARLINK-3042           
1 49142U 21082N   23259.06860536 -.00000312  00000+0 -18347-4 0  9992
2 49142  70.0039  17.8489 0002456 285.6042  74.4846 14.98333508111316
STARLINK-3109           
1 49143U 21082P   23258.81013692  .00000745  00000+0  70252-4 0  9999
2 49143  70.0013  38.5040 0003232 270.4860  89.5929 14.98336236110774
STARLINK-3100           
1 49144U 21082Q   23258.56836487  .00000418  00000+0  42838-4 0  9993
2 49144  70.0013  59.1022 0002750 259.8229 100.2619 14.98331481110255
STARLINK-3119           
1 49145U 21082R   23258.71810593  .00000629  00000+0  60477-4 0  9994
2 49145  70.0016  18.7218 0003270 274.5326  85.5459 14.98338830111250
STARLINK-3116           
1 49146U 21082S   23258.53892631 -.00000061  00000+0  26569-5 0  9994
2 49146  70.0023  39.1889 0003344 272.6105  87.4671 14.98338206111890
STARLINK-3071           
1 49147U 21082T   23258.53035059  .00000393  00000+0  40727-4 0  9996
2 49147  70.0018  19.2101 0003176 270.2242  89.8553 14.98330228111239
STARLINK-3048           
1 49148U 21082U   23258.79761735  .00000764  00000+0  71779-4 0  9995
2 49148  70.0013  38.5176 0003140 272.7582  87.3218 14.98338698111900
STARLINK-3053           
1 49149U 21082V   23258.56419087 -.00000025  00000+0  57271-5 0  9994
2 49149  70.0003  59.1147 0003066 268.4051  91.6757 14.98334646111441
STARLINK-3104           
1 49150U 21082W   23258.56002012  .00000308  00000+0  33593-4 0  9995
2 49150  70.0000  59.1288 0003209 271.5067  88.5725 14.98332784111448
STARLINK-3102           
1 49151U 21082X   23259.04356391 -.00000350  00000+0 -21544-4 0  9994
2 49151  70.0014  17.9087 0003377 265.7655  94.3118 14.98338793112513
STARLINK-3081           
1 49152U 21082Y   23258.55121051  .00000543  00000+0  53277-4 0  9993
2 49152  70.0034  19.1416 0003041 272.7652  87.3159 14.98334085112358
STARLINK-3072           
1 49153U 21082Z   23258.70141880  .00000765  00000+0  71877-4 0  9995
2 49153  70.0010  18.7783 0003374 273.3723  86.7050 14.98340034111241
STARLINK-3068           
1 49154U 21082AA  23258.79344506  .00000298  00000+0  32730-4 0  9991
2 49154  70.0012  38.5310 0003172 272.1799  87.8996 14.98335540111850
STARLINK-3060           
1 49155U 21082AB  23258.56373303  .00001088  00000+0  98931-4 0  9997
2 49155  70.0029  19.1270 0003381 277.7436  82.3339 14.98332197112318
STARLINK-3085           
1 49156U 21082AC  23258.54287146  .00001163  00000+0  10522-3 0  9998
2 49156  70.0015  19.1685 0003396 265.7284  94.3487 14.98327741112314
STARLINK-3051           
1 49157U 21082AD  23258.52223439  .00000185  00000+0  23312-4 0  9997
2 49157  70.0019  39.2192 0002954 266.4900  93.5922 14.98334831111836
STARLINK-3083           
1 49158U 21082AE  23258.73657282  .00015197  00000+0  12057-2 0  9999
2 49158  70.0001  37.9405 0002835 207.7386 152.3623 15.00595559111881
STARLINK-3056           
1 49159U 21082AF  23258.88964258  .00000449  00000+0  45450-4 0  9999
2 49159  70.0001  58.3022 0003136 269.5312  90.5488 14.98336587111392
STARLINK-3095           
1 49160U 21082AG  23258.74360698  .00000601  00000+0  58190-4 0  9999
2 49160  70.0009  58.6539 0003095 268.1412  91.9393 14.98333410111356
STARLINK-3080           
1 49161U 21082AH  23258.88129735  .00000594  00000+0  57568-4 0  9999
2 49161  70.0007  58.3035 0003116 264.8412  95.2392 14.98335455111379
STARLINK-3082           
1 49162U 21082AJ  23258.73943473  .00000513  00000+0  50764-4 0  9999
2 49162  70.0007  58.6678 0003155 268.6701  91.4096 14.98336357111441
STARLINK-3088           
1 49163U 21082AK  23258.71417838  .00001814  00000+0  15972-3 0  9995
2 49163  70.0010  38.7414 0003160 269.9348  90.1449 14.98338448111935
STARLINK-3106           
1 49164U 21082AL  23258.77258310  .00000241  00000+0  28016-4 0  9997
2 49164  70.0018  38.6032 0003089 268.7099  91.3707 14.98335536111945
STARLINK-3052           
1 49165U 21082AM  23258.73542985  .00000351  00000+0  37231-4 0  9999
2 49165  70.0005  58.6829 0003184 270.2623  89.8172 14.98332422111483
STARLINK-3089           
1 49166U 21082AN  23258.77675611  .00000295  00000+0  32545-4 0  9997
2 49166  70.0012  38.5882 0003134 270.5470  89.5330 14.98335724111971
STARLINK-3054           
1 49167U 21082AP  23258.53081400 -.00000033  00000+0  50394-5 0  9993
2 49167  70.0005  59.2007 0003202 269.0787  91.0005 14.98331289111444
STARLINK-3101           
1 49168U 21082AQ  23258.82682212  .00000773  00000+0  72586-4 0  9990
2 49168  70.0021  38.4499 0002952 267.9660  92.1161 14.98338189111985
STARLINK-3046           
1 49169U 21082AR  23258.83517016  .00000747  00000+0  70347-4 0  9995
2 49169  70.0014  38.4486 0003239 271.7289  88.3499 14.98337068111990
STARLINK-3074           
1 49170U 21082AS  23258.70605705  .00001234  00000+0  11124-3 0  9995
2 49170  70.0009  58.7638 0002958 270.5966  89.4854 14.98328225110278
STARLINK-3107           
1 49171U 21082AT  23258.72692007  .00000631  00000+0  60633-4 0  9999
2 49171  70.0002  58.7216 0003317 271.1468  88.9311 14.98332909111433
STARLINK-3091           
1 49172U 21082AU  23258.53475364  .00000041  00000+0  11193-4 0  9996
2 49172  70.0012  39.1887 0003119 269.9933  90.0868 14.98328555110739
STARLINK-3045           
1 49173U 21082AV  23258.75589146  .00000667  00000+0  63658-4 0  9992
2 49173  70.0015  38.6313 0003258 269.7827  90.2959 14.98338171110777
STARLINK-3047           
1 49174U 21082AW  23258.57460009  .00006324  00000+0  52346-3 0  9996
2 49174  70.0000  38.7410 0001351 267.5913  92.5092 14.99342087111928
STARLINK-3087           
1 49175U 21082AX  23258.51806455  .00000133  00000+0  18904-4 0  9995
2 49175  70.0012  39.2445 0003076 271.2194  88.8613 14.98332246110735
STARLINK-3069           
1 49176U 21082AY  23258.57207477  .00001217  00000+0  10975-3 0  9994
2 49176  70.0019  19.1021 0003108 271.9142  88.1661 14.98332101111238
STARLINK-3103           
1 49177U 21082AZ  23258.45942019 -.00000270  00000+0 -14786-4 0  9995
2 49177  70.0011  19.3933 0003926 278.5374  81.5340 14.98333742112417
STARLINK-3086           
1 49178U 21082BA  23258.55167301  .00000243  00000+0  28166-4 0  9995
2 49178  70.0005  59.1413 0003071 271.6261  88.4547 14.98334704111408
STARLINK-3043           
1 49179U 21082BB  23258.51366240  .00000365  00000+0  38359-4 0  9995
2 49179  70.0013  19.2412 0003224 272.0745  88.0045 14.98332700111229
